#cV2016  3 13  0  0  0.00000000    5040   SLR SLR08 FIT COMB
## 1888      0.00000000   120.00000000 57460 0.0000000000000
+    1   L52  0  0  0  0  0  0  0  0  0  0  0  0  0  0  0  0
+          0  0  0  0  0  0  0  0  0  0  0  0  0  0  0  0  0
+          0  0  0  0  0  0  0  0  0  0  0  0  0  0  0  0  0
+          0  0  0  0  0  0  0  0  0  0  0  0  0  0  0  0  0
+          0  0  0  0  0  0  0  0  0  0  0  0  0  0  0  0  0
++         0  0  0  0  0  0  0  0  0  0  0  0  0  0  0  0  0
++         0  0  0  0  0  0  0  0  0  0  0  0  0  0  0  0  0
++         0  0  0  0  0  0  0  0  0  0  0  0  0  0  0  0  0
++         0  0  0  0  0  0  0  0  0  0  0  0  0  0  0  0  0
++         0  0  0  0  0  0  0  0  0  0  0  0  0  0  0  0  0
%c L  cc UTC ccc cccc cccc cccc cccc ccccc ccccc ccccc ccccc
%c cc cc ccc ccc cccc cccc cccc cccc ccccc ccccc ccccc ccccc
%f  0.0000000  0.000000000  0.00000000000  0.000000000000000
%f  0.0000000  0.000000000  0.00000000000  0.000000000000000
%i    0    0    0    0      0      0      0      0         0
%i    0    0    0    0      0      0      0      0         0
%/* ilrsa.orb.lageos2.160319.v35.sp3 Reference TRF: SLRF2008
%/* Input orbits: ASI v35, BKG v35, DGFI v35, ESA v35,
%/* GFZ v35, GRGS v35, JCET v35, NSGF v35,
%/* Combination details in README_CC.ilrsa                  
*  2016  3 19  5 20  0.00000000
PL52    815.280370  -7911.735225   9153.733577 999999.999999
VL52  45421.680042  20716.143395  14874.021346 999999.999999
*  2016  3 19  5 22  0.00000000
PL52   1360.996013  -7655.637233   9317.408458 999999.999999
VL52  45510.883510  21954.632474  12398.776287 999999.999999
*  2016  3 19  5 24  0.00000000
PL52   1907.058995  -7385.120174   9451.168224 999999.999999
VL52  45479.452620  23119.098693   9889.536252 999999.999999
*  2016  3 19  5 26  0.00000000
PL52   2452.018191  -7101.079754   9554.654208 999999.999999
VL52  45326.860637  24208.351479   7354.516955 999999.999999
*  2016  3 19  5 28  0.00000000
PL52   2994.418269  -6804.424269   9627.606403 999999.999999
VL52  45052.933544  25221.480825   4801.940662 999999.999999
*  2016  3 19  5 30  0.00000000
PL52   3532.803919  -6496.071292   9669.863365 999999.999999
VL52  44657.847514  26157.849503   2240.008773 999999.999999
*  2016  3 19  5 32  0.00000000
PL52   4065.724027  -6176.944456   9681.361817 999999.999999
VL52  44142.125546  27017.082938   -323.123927 999999.999999
*  2016  3 19  5 34  0.00000000
PL52   4591.735811  -5847.970361   9662.135932 999999.999999
VL52  43506.633101  27799.059593  -2879.374057 999999.999999
*  2016  3 19  5 36  0.00000000
PL52   5109.408909  -5510.075605   9612.316336 999999.999999
VL52  42752.572442  28503.899300  -5420.753236 999999.999999
*  2016  3 19  5 38  0.00000000
PL52   5617.329375  -5164.183954   9532.128837 999999.999999
VL52  41881.477332  29131.952043  -7939.390490 999999.999999
*  2016  3 19  5 40  0.00000000
PL52   6114.103623  -4811.213660   9421.892879 999999.999999
VL52  40895.205577  29683.785342 -10427.553699 999999.999999
*  2016  3 19  5 42  0.00000000
PL52   6598.362269  -4452.074920   9282.019761 999999.999999
VL52  39795.932496  30160.171675 -12877.669215 999999.999999
*  2016  3 19  5 44  0.00000000
PL52   7068.763899  -4087.667495   9113.010614 999999.999999
VL52  38586.142279  30562.075470 -15282.341696 999999.999999
*  2016  3 19  5 46  0.00000000
PL52   7523.998720  -3718.878489   8915.454161 999999.999999
VL52  37268.619719  30890.639641 -17634.370701 999999.999999
*  2016  3 19  5 48  0.00000000
PL52   7962.792120  -3346.580288   8690.024271 999999.999999
VL52  35846.442267  31147.172535 -19926.768232 999999.999999
*  2016  3 19  5 50  0.00000000
PL52   8383.908117  -2971.628653   8437.477319 999999.999999
VL52  34322.969108  31333.133893 -22152.774069 999999.999999
*  2016  3 19  5 52  0.00000000
PL52   8786.152692  -2594.860985   8158.649363 999999.999999
VL52  32701.832881  31450.121876 -24305.870019 999999.999999
*  2016  3 19  5 54  0.00000000
PL52   9168.377003  -2217.094745   7854.453159 999999.999999
VL52  30986.929123  31499.859245 -26379.793558 999999.999999
*  2016  3 19  5 56  0.00000000
PL52   9529.480483  -1839.126041   7525.875016 999999.999999
VL52  29182.406108  31484.180272 -28368.550509 999999.999999
*  2016  3 19  5 58  0.00000000
PL52   9868.413804  -1461.728364   7173.971506 999999.999999
VL52  27292.654193  31405.017746 -30266.426277 999999.999999
*  2016  3 19  6  0  0.00000000
PL52  10184.181726  -1085.651485   6799.866043 999999.999999
VL52  25322.295141  31264.390004 -32067.996767 999999.999999
*  2016  3 19  6  2  0.00000000
PL52  10475.845799   -711.620504   6404.745338 999999.999999
VL52  23276.170938  31064.388880 -33768.138154 999999.999999
*  2016  3 19  6  4  0.00000000
PL52  10742.526945   -340.335040   5989.855740 999999.999999
VL52  21159.332407  30807.167089 -35362.036184 999999.999999
*  2016  3 19  6  6  0.00000000
PL52  10983.407892     27.531429   5556.499470 999999.999999
VL52  18977.028339  30494.926903 -36845.194276 999999.999999
*  2016  3 19  6  8  0.00000000
PL52  11197.735479    391.332092   5106.030762 999999.999999
VL52  16734.692912  30129.908829 -38213.441365 999999.999999
*  2016  3 19  6 10  0.00000000
PL52  11384.822810    750.447200   4639.851917 999999.999999
VL52  14437.934141  29714.380733 -39462.938879 999999.999999
*  2016  3 19  6 12  0.00000000
PL52  11544.051266   1104.284330   4159.409272 999999.999999
VL52  12092.522007  29250.627679 -40590.186509 999999.999999
*  2016  3 19  6 14  0.00000000
PL52  11674.872382   1452.278535   3666.189102 999999.999999
VL52   9704.375710  28740.941994 -41592.029336 999999.999999
*  2016  3 19  6 16  0.00000000
PL52  11776.809553   1793.892373   3161.713452 999999.999999
VL52   7279.551333  28187.614217 -42465.661814 999999.999999
*  2016  3 19  6 18  0.00000000
PL52  11849.459606   2128.615834   2647.535911 999999.999999
VL52   4824.228897  27592.924282 -43208.632474 999999.999999
*  2016  3 19  6 20  0.00000000
PL52  11892.494206   2455.966159   2125.237333 999999.999999
VL52   2344.699387  26959.133326 -43818.849353 999999.999999
*  2016  3 19  6 22  0.00000000
PL52  11905.661107   2775.487577   1596.421507 999999.999999
VL52   -152.648520  26288.476238 -44294.582234 999999.999999
*  2016  3 19  6 24  0.00000000
PL52  11888.785250   3086.750940   1062.710799 999999.999999
VL52  -2661.342004  25583.154693 -44634.466522 999999.999999
*  2016  3 19  6 26  0.00000000
PL52  11841.769683   3389.353287    525.741736 999999.999999
VL52  -5174.837905  24845.330257 -44837.505998 999999.999999
*  2016  3 19  6 28  0.00000000
PL52  11764.596322   3682.917333    -12.839415 999999.999999
VL52  -7686.536850  24077.119569 -44903.074530 999999.999999
*  2016  3 19  6 30  0.00000000
PL52  11657.326546   3967.090886   -551.381110 999999.999999
VL52 -10189.797373  23280.588227 -44830.918837 999999.999999
*  2016  3 19  6 32  0.00000000
PL52  11520.101607   4241.546220  -1088.231000 999999.999999
VL52 -12677.951047  22457.746340 -44621.158406 999999.999999
*  2016  3 19  6 34  0.00000000
PL52  11353.142871   4505.979372  -1621.740424 999999.999999
VL52 -15144.316722  21610.544800 -44274.287914 999999.999999
*  2016  3 19  6 36  0.00000000
PL52  11156.751872   4760.109419  -2150.268897 999999.999999
VL52 -17582.216167  20740.871246 -43791.175999 999999.999999
*  2016  3 19  6 38  0.00000000
PL52  10931.310189   5003.677696  -2672.188609 999999.999999
VL52 -19984.989899  19850.548013 -43173.066189 999999.999999
*  2016  3 19  6 40  0.00000000
PL52  10677.279125   5236.447000  -3185.888916 999999.999999
VL52 -22346.012296  18941.329000 -42421.575804 999999.999999
*  2016  3 19  6 42  0.00000000
PL52  10395.199204   5458.200759  -3689.780816 999999.999999
VL52 -24658.708654  18014.898395 -41538.694330 999999.999999
*  2016  3 19  6 44  0.00000000
PL52  10085.689465   5668.742183  -4182.301410 999999.999999
VL52 -26916.570673  17072.869489 -40526.782271 999999.999999
*  2016  3 19  6 46  0.00000000
PL52   9749.446555   5867.893414  -4661.918335 999999.999999
VL52 -29113.174115  16116.783999 -39388.568034 999999.999999
*  2016  3 19  6 48  0.00000000
PL52   9387.243626   6055.494664  -5127.134161 999999.999999
VL52 -31242.195543  15148.111562 -38127.145080 999999.999999
*  2016  3 19  6 50  0.00000000
PL52   8999.929025   6231.403355  -5576.490754 999999.999999
VL52 -33297.429826  14168.251303 -36745.968012 999999.999999
*  2016  3 19  6 52  0.00000000
PL52   8588.424758   6395.493270  -6008.573575 999999.999999
VL52 -35272.807039  13178.531367 -35248.847980 999999.999999
*  2016  3 19  6 54  0.00000000
PL52   8153.724766   6547.653721  -6422.015937 999999.999999
VL52 -37162.411532  12180.211525 -33639.947313 999999.999999
*  2016  3 19  6 56  0.00000000
PL52   7696.892969   6687.788732  -6815.503173 999999.999999
VL52 -38960.499267  11174.484658 -31923.773335 999999.999999
*  2016  3 19  6 58  0.00000000
PL52   7219.061090   6815.816252  -7187.776741 999999.999999
VL52 -40661.516053  10162.479340 -30105.171201 999999.999999
*  2016  3 19  7  0  0.00000000
PL52   6721.426275   6931.667400  -7537.638227 999999.999999
VL52 -42260.116149   9145.262138 -28189.316003 999999.999999
*  2016  3 19  7  2  0.00000000
PL52   6205.248472   7035.285741  -7863.953254 999999.999999
VL52 -43751.180930   8123.841705 -26181.703581 999999.999999
*  2016  3 19  7  4  0.00000000
PL52   5671.847600   7126.626613  -8165.655267 999999.999999
VL52 -45129.836898   7099.171908 -24088.140294 999999.999999
*  2016  3 19  7  6  0.00000000
PL52   5122.600494   7205.656491  -8441.749204 999999.999999
VL52 -46391.474644   6072.156012 -21914.732769 999999.999999
*  2016  3 19  7  8  0.00000000
PL52   4558.937622   7272.352408  -8691.315011 999999.999999
VL52 -47531.767511   5043.651000 -19667.874170 999999.999999
*  2016  3 19  7 10  0.00000000
PL52   3982.339595   7326.701426  -8913.511015 999999.999999
VL52 -48546.689157   4014.472226 -17354.232148 999999.999999
